{
  "links" : {
    "next" : "https://api.nasa.gov/neo/rest/v1/feed?start_date=2008-01-09&end_date=2008-01-09&detailed=true&api_key=t0TVs3DtDT2H8Oy2Zy8m2eVrNsAVKAexjcZXUckd",
    "prev" : "https://api.nasa.gov/neo/rest/v1/feed?start_date=2008-01-07&end_date=2008-01-07&detailed=true&api_key=t0TVs3DtDT2H8Oy2Zy8m2eVrNsAVKAexjcZXUckd",
    "self" : "https://api.nasa.gov/neo/rest/v1/feed?start_date=2008-01-08&end_date=2008-01-08&detailed=true&api_key=t0TVs3DtDT2H8Oy2Zy8m2eVrNsAVKAexjcZXUckd"
  },
  "element_count" : 9,
  "near_earth_objects" : {
    "2008-01-08" : [ {
      "links" : {
        "self" : "https://api.nasa.gov/neo/rest/v1/neo/3523340?api_key=t0TVs3DtDT2H8Oy2Zy8m2eVrNsAVKAexjcZXUckd"
      },
      "neo_reference_id" : "3523340",
      "name" : "(2010 KA8)",
      "nasa_jpl_url" : "http://ssd.jpl.nasa.gov/sbdb.cgi?sstr=3523340",
      "absolute_magnitude_h" : 21.4,
      "estimated_diameter" : {
        "kilometers" : {
          "estimated_diameter_min" : 0.1394938229,
          "estimated_diameter_max" : 0.3119176705
        },
        "meters" : {
          "estimated_diameter_min" : 139.4938229344,
          "estimated_diameter_max" : 311.9176705226
        },
        "miles" : {
          "estimated_diameter_min" : 0.0866774163,
          "estimated_diameter_max" : 0.1938165949
        },
        "feet" : {
          "estimated_diameter_min" : 457.6569140361,
          "estimated_diameter_max" : 1023.3519701574
        }
      },
      "is_potentially_hazardous_asteroid" : false,
      "close_approach_data" : [ {
        "close_approach_date" : "2008-01-08",
        "epoch_date_close_approach" : 1199779200000,
        "relative_velocity" : {
          "kilometers_per_second" : "11.8479921894",
          "kilometers_per_hour" : "42652.7718816614",
          "miles_per_hour" : "26502.7737283579"
        },
        "miss_distance" : {
          "astronomical" : "0.1504220078",
          "lunar" : "58.5141601562",
          "kilometers" : "22502812",
          "miles" : "13982599"
        },
        "orbiting_body" : "Earth"
      } ],
      "orbital_data" : {
        "orbit_id" : "18",
        "orbit_determination_date" : "2017-04-06 08:57:27",
        "orbit_uncertainty" : "6",
        "minimum_orbit_intersection" : ".0969831",
        "jupiter_tisserand_invariant" : "4.201",
        "epoch_osculation" : "2458000.5",
        "eccentricity" : ".4337334044090529",
        "semi_major_axis" : "1.620518534540095",
        "inclination" : "10.11795157236279",
        "ascending_node_longitude" : "246.4346201485058",
        "orbital_period" : "753.4933621397086",
        "perihelion_distance" : ".9176455136460505",
        "perihelion_argument" : "277.1394691031999",
        "aphelion_distance" : "2.32339155543414",
        "perihelion_time" : "2458283.313238850725",
        "mean_anomaly" : "224.8790140670365",
        "mean_motion" : ".4777746136710502",
        "equinox" : "J2000"
      }
    }, {
      "links" : {
        "self" : "https://api.nasa.gov/neo/rest/v1/neo/3596842?api_key=t0TVs3DtDT2H8Oy2Zy8m2eVrNsAVKAexjcZXUckd"
      },
      "neo_reference_id" : "3596842",
      "name" : "(2012 BF86)",
      "nasa_jpl_url" : "http://ssd.jpl.nasa.gov/sbdb.cgi?sstr=3596842",
      "absolute_magnitude_h" : 22.6,
      "estimated_diameter" : {
        "kilometers" : {
          "estimated_diameter_min" : 0.0802703167,
          "estimated_diameter_max" : 0.1794898848
        },
        "meters" : {
          "estimated_diameter_min" : 80.2703167283,
          "estimated_diameter_max" : 179.4898847799
        },
        "miles" : {
          "estimated_diameter_min" : 0.049877647,
          "estimated_diameter_max" : 0.1115298092
        },
        "feet" : {
          "estimated_diameter_min" : 263.3540659348,
          "estimated_diameter_max" : 588.8775935812
        }
      },
      "is_potentially_hazardous_asteroid" : false,
      "close_approach_data" : [ {
        "close_approach_date" : "2008-01-08",
        "epoch_date_close_approach" : 1199779200000,
        "relative_velocity" : {
          "kilometers_per_second" : "19.3976311963",
          "kilometers_per_hour" : "69831.4723066242",
          "miles_per_hour" : "43390.5612229688"
        },
        "miss_distance" : {
          "astronomical" : "0.260163409",
          "lunar" : "101.2035598755",
          "kilometers" : "38919892",
          "miles" : "24183698"
        },
        "orbiting_body" : "Earth"
      } ],
      "orbital_data" : {
        "orbit_id" : "14",
        "orbit_determination_date" : "2017-04-06 08:51:09",
        "orbit_uncertainty" : "2",
        "minimum_orbit_intersection" : ".0238766",
        "jupiter_tisserand_invariant" : "7.563",
        "epoch_osculation" : "2458000.5",
        "eccentricity" : ".4358521637874034",
        "semi_major_axis" : ".7562332014863926",
        "inclination" : "6.018634400547531",
        "ascending_node_longitude" : "117.5898066264404",
        "orbital_period" : "240.2049969813891",
        "perihelion_distance" : ".4266273242906731",
        "perihelion_argument" : "196.39184814",
        "aphelion_distance" : "1.085839078682112",
        "perihelion_time" : "2458013.386187685225",
        "mean_anomaly" : "340.6872145668121",
        "mean_motion" : "1.498719862301168",
        "equinox" : "J2000"
      }
    }, {
      "links" : {
        "self" : "https://api.nasa.gov/neo/rest/v1/neo/3655761?api_key=t0TVs3DtDT2H8Oy2Zy8m2eVrNsAVKAexjcZXUckd"
      },
      "neo_reference_id" : "3655761",
      "name" : "(2014 AE29)",
      "nasa_jpl_url" : "http://ssd.jpl.nasa.gov/sbdb.cgi?sstr=3655761",
      "absolute_magnitude_h" : 27.4,
      "estimated_diameter" : {
        "kilometers" : {
          "estimated_diameter_min" : 0.0088014652,
          "estimated_diameter_max" : 0.0196806745
        },
        "meters" : {
          "estimated_diameter_min" : 8.801465209,
          "estimated_diameter_max" : 19.6806745089
        },
        "miles" : {
          "estimated_diameter_min" : 0.0054689752,
          "estimated_diameter_max" : 0.0122290004
        },
        "feet" : {
          "estimated_diameter_min" : 28.8761991163,
          "estimated_diameter_max" : 64.5691441559
        }
      },
      "is_potentially_hazardous_asteroid" : false,
      "close_approach_data" : [ {
        "close_approach_date" : "2008-01-08",
        "epoch_date_close_approach" : 1199779200000,
        "relative_velocity" : {
          "kilometers_per_second" : "13.2531647385",
          "kilometers_per_hour" : "47711.393058447",
          "miles_per_hour" : "29646.0042034556"
        },
        "miss_distance" : {
          "astronomical" : "0.278973653",
          "lunar" : "108.5207443237",
          "kilometers" : "41733864",
          "miles" : "25932220"
        },
        "orbiting_body" : "Earth"
      } ],
      "orbital_data" : {
        "orbit_id" : "5",
        "orbit_determination_date" : "2017-04-06 08:42:58",
        "orbit_uncertainty" : "6",
        "minimum_orbit_intersection" : ".0110091",
        "jupiter_tisserand_invariant" : "6.558",
        "epoch_osculation" : "2458000.5",
        "eccentricity" : ".1582910382585499",
        "semi_major_axis" : ".9070830748893509",
        "inclination" : "4.856543021520674",
        "ascending_node_longitude" : "103.1268230186044",
        "orbital_period" : "315.5506086907696",
        "perihelion_distance" : ".7634999531783576",
        "perihelion_argument" : "137.8817635727509",
        "aphelion_distance" : "1.050666196600344",
        "perihelion_time" : "2458032.303167889953",
        "mean_anomaly" : "323.7169438909147",
        "mean_motion" : "1.14086295537078",
        "equinox" : "J2000"
      }
    } ]
  }
}